{"type": "FeatureCollection", "features": [ {"type": "Feature", "properties": {"norad_id": 30306, "name": "FENGYUN 1C DEB", "group": "fengyun-1c-debris", "lat": -80.94553602339822, "lon": 138.71800016246516, "alt_km": 794.5552490532764, "timestamp": "2025-12-15T04:01:20.726909+00:00", "meta": {"OBJECT_NAME": "FENGYUN 1C DEB", "OBJECT_ID": "1999-025ZT", "EPOCH": "2025-12-13T18:49:21.309024", "MEAN_MOTION": 14.28211217, "ECCENTRICITY": 0.01132869, "INCLINATION": 98.5877, "RA_OF_ASC_NODE": 28.845, "ARG_OF_PERICENTER": 354.4311, "MEAN_ANOMALY": 5.5603, "EPHEMERIS_TYPE": 0, "CLASSIFICATION_TYPE": "U", "NORAD_CAT_ID": 30306, "ELEMENT_SET_NO": 999, "REV_AT_EPOCH": 97696, "BSTAR": 0.0012323526, "MEAN_MOTION_DOT": 3.245e-05, "MEAN_MOTION_DDOT": 0}, "tle": {"line1": "1 30306U 99025ZT  25347.78427441  .00003245  00000+0  12324-2 0  9992", "line2": "2 30306  98.5877  28.8450 0113286 354.4311   5.5603 14.28211217976962"}}, "geometry": {"type": "Point", "coordinates": [138.71800016246516, -80.94553602339822]}}, {"type": "Feature", "properties": {"norad_id": 30309, "name": "FENGYUN 1C DEB", "group": "fengyun-1c-debris", "lat": -49.52526443543147, "lon": -144.6537149087241, "alt_km": 874.6656848609755, "timestamp": "2025-12-15T04:01:20.726919+00:00", "meta": {"OBJECT_NAME": "FENGYUN 1C DEB", "OBJECT_ID": "1999-025ZW", "EPOCH": "2025-12-14T02:47:55.377024", "MEAN_MOTION": 13.93521193, "ECCENTRICITY": 0.00934266, "INCLINATION": 99.226, "RA_OF_ASC_NODE": 45.2783, "ARG_OF_PERICENTER": 188.1188, "MEAN_ANOMALY": 171.8465, "EPHEMERIS_TYPE": 0, "CLASSIFICATION_TYPE": "U", "NORAD_CAT_ID": 30309, "ELEMENT_SET_NO": 999, "REV_AT_EPOCH": 96052, "BSTAR": 0.00030822464, "MEAN_MOTION_DOT": 3.74e-06, "MEAN_MOTION_DDOT": 0}, "tle": {"line1": "1 30309U 99025ZW  25348.11661316  .00000374  00000+0  30822-3 0  9998", "line2": "2 30309  99.2260  45.2783 0093426 188.1188 171.8465 13.93521193960524"}}, "geometry": {"type": "Point", "coordinates": [-144.6537149087241, -49.52526443543147]}}, {"type": "Feature", "properties": {"norad_id": 30310, "name": "FENGYUN 1C DEB", "group": "fengyun-1c-debris", "lat": -79.20050662243065, "lon": 61.79159633210412, "alt_km": 820.6673230544857, "timestamp": "2025-12-15T04:01:20.726929+00:00", "meta": {"OBJECT_NAME": "FENGYUN 1C DEB", "OBJECT_ID": "1999-025ZX", "EPOCH": "2025-12-13T18:18:15.746400", "MEAN_MOTION": 14.08390292, "ECCENTRICITY": 0.02408446, "INCLINATION": 98.6654, "RA_OF_ASC_NODE": 7.3611, "ARG_OF_PERICENTER": 354.6021, "MEAN_ANOMALY": 5.256, "EPHEMERIS_TYPE": 0, "CLASSIFICATION_TYPE": "U", "NORAD_CAT_ID": 30310, "ELEMENT_SET_NO": 999, "REV_AT_EPOCH": 96746, "BSTAR": 0.00091214571, "MEAN_MOTION_DOT": 1.995e-05, "MEAN_MOTION_DDOT": 0}, "tle": {"line1": "1 30310U 99025ZX  25347.76268225  .00001995  00000+0  91215-3 0  9995", "line2": "2 30310  98.6654   7.3611 0240844 354.6021   5.2560 14.08390292967466"}}, "geometry": {"type": "Point", "coordinates": [61.79159633210412, -79.20050662243065]}}, {"type": "Feature", "properties": {"norad_id": 30311, "name": "FENGYUN 1C DEB", "group": "fengyun-1c-debris", "lat": -33.08372633547577, "lon": -101.25388313062317, "alt_km": 865.1408707469955, "timestamp": "2025-12-15T04:01:20.726939+00:00", "meta": {"OBJECT_NAME": "FENGYUN 1C DEB", "OBJECT_ID": "1999-025ZY", "EPOCH": "2025-12-14T06:04:42.233376", "MEAN_MOTION": 13.77890669, "ECCENTRICITY": 0.01653569, "INCLINATION": 99.1394, "RA_OF_ASC_NODE": 83.8858, "ARG_OF_PERICENTER": 192.9865, "MEAN_ANOMALY": 166.7004, "EPHEMERIS_TYPE": 0, "CLASSIFICATION_TYPE": "U", "NORAD_CAT_ID": 30311, "ELEMENT_SET_NO": 999, "REV_AT_EPOCH": 94981, "BSTAR": 0.00055205574, "MEAN_MOTION_DOT": 5.7e-06, "MEAN_MOTION_DDOT": 0}, "tle": {"line1": "1 30311U 99025ZY  25348.25326659  .00000570  00000+0  55206-3 0  9995", "line2": "2 30311  99.1394  83.8858 0165356 192.9865 166.7004 13.77890669949812"}}, "geometry": {"type": "Point", "coordinates": [-101.25388313062317, -33.08372633547577]}}, {"type": "Feature", "properties": {"norad_id": 30312, "name": "FENGYUN 1C DEB", "group": "fengyun-1c-debris", "lat": -1.2283504375653331, "lon": -111.64285854779305, "alt_km": 734.2825022642055, "timestamp": "2025-12-15T04:01:20.726949+00:00", "meta": {"OBJECT_NAME": "FENGYUN 1C DEB", "OBJECT_ID": "1999-025ZZ", "EPOCH": "2025-12-14T04:12:24.596352", "MEAN_MOTION": 14.45864773, "ECCENTRICITY": 0.00119711, "INCLINATION": 98.8661, "RA_OF_ASC_NODE": 67.5123, "ARG_OF_PERICENTER": 205.2669, "MEAN_ANOMALY": 213.7218, "EPHEMERIS_TYPE": 0, "CLASSIFICATION_TYPE": "U", "NORAD_CAT_ID": 30312, "ELEMENT_SET_NO": 999, "REV_AT_EPOCH": 97941, "BSTAR": 0.002649692, "MEAN_MOTION_DOT": 9.385e-05, "MEAN_MOTION_DDOT": 0}, "tle": {"line1": "1 30312U 99025ZZ  25348.17528468  .00009385  00000+0  26497-2 0  9991", "line2": "2 30312  98.8661  67.5123 0011971 205.2669 213.7218 14.45864773979415"}}, "geometry": {"type": "Point", "coordinates": [-111.64285854779305, -1.2283504375653331]}}, {"type": "Feature", "properties": {"norad_id": 30313, "name": "FENGYUN 1C DEB", "group": "fengyun-1c-debris", "lat": 80.95969556824937, "lon": -3.7636368406131315, "alt_km": 819.1705518761482, "timestamp": "2025-12-15T04:01:20.726959+00:00", "meta": {"OBJECT_NAME": "FENGYUN 1C DEB", "OBJECT_ID": "1999-025AAA", "EPOCH": "2025-12-14T05:48:50.884704", "MEAN_MOTION": 14.25469545, "ECCENTRICITY": 0.00563783, "INCLINATION": 98.8751, "RA_OF_ASC_NODE": 74.4297, "ARG_OF_PERICENTER": 331.5367, "MEAN_ANOMALY": 50.2806, "EPHEMERIS_TYPE": 0, "CLASSIFICATION_TYPE": "U", "NORAD_CAT_ID": 30313, "ELEMENT_SET_NO": 999, "REV_AT_EPOCH": 97111, "BSTAR": 0.0019454851, "MEAN_MOTION_DOT": 4.629e-05, "MEAN_MOTION_DDOT": 0}, "tle": {"line1": "1 30313U 99025AAA 25348.24225561  .00004629  00000+0  19455-2 0  9990", "line2": "2 30313  98.8751  74.4297 0056378 331.5367  50.2806 14.25469545971115"}}, "geometry": {"type": "Point", "coordinates": [-3.7636368406131315, 80.95969556824937]}}, {"type": "Feature", "properties": {"norad_id": 30314, "name": "FENGYUN 1C DEB", "group": "fengyun-1c-debris", "lat": -74.72242656183909, "lon": -32.826637216134905, "alt_km": 902.4965627435458, "timestamp": "2025-12-15T04:01:20.726970+00:00", "meta": {"OBJECT_NAME": "FENGYUN 1C DEB", "OBJECT_ID": "1999-025AAB", "EPOCH": "2025-12-11T11:23:18.286944", "MEAN_MOTION": 14.0118585, "ECCENTRICITY": 0.01424052, "INCLINATION": 98.3809, "RA_OF_ASC_NODE": 176.4445, "ARG_OF_PERICENTER": 1.4637, "MEAN_ANOMALY": 358.6919, "EPHEMERIS_TYPE": 0, "CLASSIFICATION_TYPE": "U", "NORAD_CAT_ID": 30314, "ELEMENT_SET_NO": 999, "REV_AT_EPOCH": 96091, "BSTAR": 0.0016680196, "MEAN_MOTION_DOT": 2.699e-05, "MEAN_MOTION_DDOT": 0}, "tle": {"line1": "1 30314U 99025AAB 25345.47451721  .00002699  00000+0  16680-2 0  9994", "line2": "2 30314  98.3809 176.4445 0142405   1.4637 358.6919 14.01185850960917"}}, "geometry": {"type": "Point", "coordinates": [-32.826637216134905, -74.72242656183909]}}, {"type": "Feature", "properties": {"norad_id": 30315, "name": "FENGYUN 1C DEB", "group": "fengyun-1c-debris", "lat": -38.93687607327287, "lon": 171.58170276623702, "alt_km": 852.4745170211863, "timestamp": "2025-12-15T04:01:20.726980+00:00", "meta": {"OBJECT_NAME": "FENGYUN 1C DEB", "OBJECT_ID": "1999-025AAC", "EPOCH": "2025-12-14T00:10:08.345856", "MEAN_MOTION": 14.19066453, "ECCENTRICITY": 0.00351807, "INCLINATION": 98.6017, "RA_OF_ASC_NODE": 357.48, "ARG_OF_PERICENTER": 356.6742, "MEAN_ANOMALY": 57.4479, "EPHEMERIS_TYPE": 0, "CLASSIFICATION_TYPE": "U", "NORAD_CAT_ID": 30315, "ELEMENT_SET_NO": 999, "REV_AT_EPOCH": 97725, "BSTAR": 0.00044029947, "MEAN_MOTION_DOT": 8.83e-06, "MEAN_MOTION_DDOT": 0}, "tle": {"line1": "1 30315U 99025AAC 25348.00704104  .00000883  00000+0  44030-3 0  9997", "line2": "2 30315  98.6017 357.4800 0035180 356.6742  57.4479 14.19066453977257"}}, "geometry": {"type": "Point", "coordinates": [171.58170276623702, -38.93687607327287]}}, {"type": "Feature", "properties": {"norad_id": 30316, "name": "FENGYUN 1C DEB", "group": "fengyun-1c-debris", "lat": -54.91347619995474, "lon": -100.84353278113247, "alt_km": 735.8211612485075, "timestamp": "2025-12-15T04:01:20.726990+00:00", "meta": {"OBJECT_NAME": "FENGYUN 1C DEB", "OBJECT_ID": "1999-025AAD", "EPOCH": "2025-12-14T05:30:13.495104", "MEAN_MOTION": 14.56106814, "ECCENTRICITY": 0.00355848, "INCLINATION": 98.6477, "RA_OF_ASC_NODE": 90.6967, "ARG_OF_PERICENTER": 35.1372, "MEAN_ANOMALY": 325.2161, "EPHEMERIS_TYPE": 0, "CLASSIFICATION_TYPE": "U", "NORAD_CAT_ID": 30316, "ELEMENT_SET_NO": 999, "REV_AT_EPOCH": 98358, "BSTAR": 0.0023027736, "MEAN_MOTION_DOT": 0.00010205, "MEAN_MOTION_DDOT": 0}, "tle": {"line1": "1 30316U 99025AAD 25348.22932286  .00010205  00000+0  23028-2 0  9998", "line2": "2 30316  98.6477  90.6967 0035584  35.1372 325.2161 14.56106814983588"}}, "geometry": {"type": "Point", "coordinates": [-100.84353278113247, -54.91347619995474]}}, {"type": "Feature", "properties": {"norad_id": 30317, "name": "FENGYUN 1C DEB", "group": "fengyun-1c-debris", "lat": 71.96779758165519, "lon": -162.06305631271266, "alt_km": 879.6716126993124, "timestamp": "2025-12-15T04:01:20.727000+00:00", "meta": {"OBJECT_NAME": "FENGYUN 1C DEB", "OBJECT_ID": "1999-025AAE", "EPOCH": "2025-12-13T22:30:17.226432", "MEAN_MOTION": 14.06948384, "ECCENTRICITY": 0.00241183, "INCLINATION": 98.7865, "RA_OF_ASC_NODE": 348.3763, "ARG_OF_PERICENTER": 273.259, "MEAN_ANOMALY": 86.5819, "EPHEMERIS_TYPE": 0, "CLASSIFICATION_TYPE": "U", "NORAD_CAT_ID": 30317, "ELEMENT_SET_NO": 999, "REV_AT_EPOCH": 97030, "BSTAR": 0.00032325176, "MEAN_MOTION_DOT": 4.97e-06, "MEAN_MOTION_DDOT": 0}, "tle": {"line1": "1 30317U 99025AAE 25347.93769938  .00000497  00000+0  32325-3 0  9991", "line2": "2 30317  98.7865 348.3763 0024118 273.2590  86.5819 14.06948384970300"}}, "geometry": {"type": "Point", "coordinates": [-162.06305631271266, 71.96779758165519]}}]}